CANX-2                  
1 32790U 08021H   24365.66017560  .00013317  00000+0  10983-2 0  9990
2 32790  97.7953 328.7501 0013596  48.4298 311.8088 14.99077033904766
TISAT 1                 
1 36799U 10035E   24366.48465856  .00027451  00000+0  16766-2 0  9996
2 36799  98.0699 265.2486 0002529 312.4200  47.6813 15.10256456786757
AEROCUBE 4.5A           
1 38767U 12048K   24365.52388701  .00043329  00000+0  16017-2 0  9997
2 38767  64.6528  37.8514 0111027 317.9001  41.3633 15.21795555290214
BRITE-AUSTRIA           
1 39091U 13009F   24366.58657747  .00000908  00000+0  32620-3 0  9997
2 39091  98.3817 188.7842 0010945  35.6986 324.4930 14.36131145620590
POPACS 1                
1 39268U 13055D   24366.05684341  .00067199  93746-7  85584-3 0  9995
2 39268  80.9799 281.3107 0319531 167.5622 193.3743 15.16778884591599
DELFI-N3XT              
1 39428U 13066N   24366.49314031  .00014993  00000+0  16651-2 0  9994
2 39428  97.8385 280.3747 0091025 165.2058 195.1852 14.84280922595294
CUBEBUG-2 (LO-74)       
1 39440U 13066AA  24366.58269841  .00014506  00000+0  15499-2 0  9995
2 39440  97.8344 306.7065 0065123 348.9371  11.0409 14.87312040597631
SNAP-3 EDDIE            
1 40972U 15058J   24366.84797920  .00055219  00000+0  28083-2 0  9992
2 40972  64.7647  53.6530 0127981 244.0476 114.7414 15.09589924 37571
HORYU-4                 
1 41340U 16012D   24366.66503626  .00036887  00000+0  13485-2 0  9991
2 41340  30.9996 119.4552 0007399 187.7533 172.2996 15.26864332488241
AEROCUBE 8C             
1 41853U 16067F   24366.98561055  .00020007  00000+0  11153-2 0  9992
2 41853  98.0924 186.0144 0007736  88.2242 271.9874 15.13605960445241
PROMETHEUS 2-1          
1 41854U 16067G   25001.01680203  .00063644  00000+0  20683-2 0  9993
2 41854  98.0906 197.7067 0009739  89.4729 270.7626 15.31633024445854
CORVUS BC1              
1 42847U 17042Y   24366.76323743  .00009710  00000+0  76257-3 0  9991
2 42847  97.3674 181.7302 0013072  84.7975 275.4742 15.01029535407067
MOVE-II                 
1 43780U 18099Y   24366.84912710  .00088600  00000+0  25418-2 0  9995
2 43780  97.4927  70.1175 0004675  14.1524 345.9850 15.35518885333037
M2 PATHFINDER           
1 45727U 20037E   24366.44010124  .00009096  00000+0  73378-3 0  9998
2 45727  97.7772 182.3437 0011662 161.3691 198.7961 15.00051406245483
NETSAT-1                
1 46506U 20068W   24366.35524056  .00018274  00000+0  86920-3 0  9997
2 46506  97.8304 328.2272 0009476  68.4610 291.7633 15.19202450233997
BEESAT-8                
1 48085U 21022AP  24365.72137096  .00432562  00000+0  29596-2 0  9991
2 48085  97.4765 273.5903 0011434 103.2949 256.9590 15.73466822208230
SITRO-AIS 12 (SMIRENNIY)
1 57204U 23091AQ  25001.15634489  .00029821  00000+0  14464-2 0  9993
2 57204  97.5864  60.1755 0011404 137.1670 223.0454 15.18395368 83525
SITRO-AIS 11 (SHEFFER)  
1 57208U 23091AU  24366.92903499  .00027774  00000+0  13426-2 0  9997
2 57208  97.5860  60.0001 0011208 138.4693 221.7394 15.18529760 83498
SITRO-AIS 51            
1 59062U 24039M   25001.13869467  .00116183  00000+0  19855-2 0  9991
2 59062  97.4100 330.6358 0007600 204.8311 155.2576 15.50845878 47019
